[{"OBJECT_NAME":"STARLINK-32210","OBJECT_ID":"2024-150M","EPOCH":"2026-03-09T22:35:03.865344","MEAN_MOTION":15.30190926,"ECCENTRICITY":0.00011019,"INCLINATION":53.1597,"RA_OF_ASC_NODE":305.5858,"ARG_OF_PERICENTER":77.9257,"MEAN_ANOMALY":282.1867,"EPHEMERIS_TYPE":0,"CLASSIFICATION_TYPE":"U","NORAD_CAT_ID":60594,"ELEMENT_SET_NO":999,"REV_AT_EPOCH":8808,"BSTAR":3.589952e-5,"MEAN_MOTION_DOT":7.04e-6,"MEAN_MOTION_DDOT":0},{"OBJECT_NAME":"ASRTU-1 (AO-123)","OBJECT_ID":"2024-199AY","EPOCH":"2026-03-09T22:36:42.151392","MEAN_MOTION":15.34070057,"ECCENTRICITY":0.0012786,"INCLINATION":97.3152,"RA_OF_ASC_NODE":298.5256,"ARG_OF_PERICENTER":309.3392,"MEAN_ANOMALY":50.6717,"EPHEMERIS_TYPE":0,"CLASSIFICATION_TYPE":"U","NORAD_CAT_ID":61781,"ELEMENT_SET_NO":999,"REV_AT_EPOCH":11870,"BSTAR":0.00032267684,"MEAN_MOTION_DOT":0.00010589,"MEAN_MOTION_DDOT":0}]
